[{"OBJECT_NAME":"STARLINK-5864","OBJECT_ID":"2023-037AC","EPOCH":"2026-03-09T21:53:20.184288","MEAN_MOTION":14.98316778,"ECCENTRICITY":0.0002723,"INCLINATION":69.998,"RA_OF_ASC_NODE":283.8894,"ARG_OF_PERICENTER":269.3008,"MEAN_ANOMALY":90.7839,"EPHEMERIS_TYPE":0,"CLASSIFICATION_TYPE":"U","NORAD_CAT_ID":55940,"ELEMENT_SET_NO":999,"REV_AT_EPOCH":16401,"BSTAR":5.7458998e-5,"MEAN_MOTION_DOT":5.92e-6,"MEAN_MOTION_DDOT":0},{"OBJECT_NAME":"EZIE-C","OBJECT_ID":"2025-052AR","EPOCH":"2026-03-09T16:54:14.963904","MEAN_MOTION":14.96297342,"ECCENTRICITY":0.00032112,"INCLINATION":97.6981,"RA_OF_ASC_NODE":322.3863,"ARG_OF_PERICENTER":161.3597,"MEAN_ANOMALY":198.7743,"EPHEMERIS_TYPE":0,"CLASSIFICATION_TYPE":"U","NORAD_CAT_ID":63249,"ELEMENT_SET_NO":999,"REV_AT_EPOCH":5378,"BSTAR":0.0007072062,"MEAN_MOTION_DOT":7.941e-5,"MEAN_MOTION_DDOT":0}]
